IRIDIUM 138             
1 43071U 17083B   26167.68855487  .00000136  00000+0  41455-4 0  9999
2 43071  86.3978 321.9192 0002322  87.0564 273.0897 14.34217764444067
IRIDIUM 116             
1 43072U 17083C   26167.86614719  .00000013  00000+0 -23739-5 0  9992
2 43072  86.3963 322.1355 0001966  98.7248 261.4170 14.34217745444128
IRIDIUM 130             
1 43073U 17083D   26167.69489559  .00000103  00000+0  29839-4 0  9991
2 43073  86.3970 322.4823 0001928  91.9929 268.1488 14.34218522444040
IRIDIUM 151             
1 43074U 17083E   26167.87883314  .00000006  00000+0 -49577-5 0  9994
2 43074  86.3961 322.1881 0002048  92.9504 267.1926 14.34217489444098
IRIDIUM 134             
1 43075U 17083F   26167.84711997 -.00000030  00000+0 -17659-4 0  9992
2 43075  86.3962 322.2094 0001975  91.3578 268.7844 14.34217308444051
IRIDIUM 137             
1 43076U 17083G   26167.85980507  .00000013  00000+0 -23892-5 0  9996
2 43076  86.3969 322.2968 0002261 103.8153 256.3294 14.34217717444120
IRIDIUM 141             
1 43077U 17083H   26167.85346207  .00000032  00000+0  44481-5 0  9997
2 43077  86.3963 322.1301 0002214  90.8285 269.3164 14.34217922444122
IRIDIUM 153             
1 43078U 17083J   26167.73587334  .00000017  00000+0 -10671-5 0  9991
2 43078  86.3960 290.6595 0002252  89.8464 270.2990 14.34217569445219
IRIDIUM 131             
1 43079U 17083K   26167.84077597  .00000082  00000+0  22267-4 0  9993
2 43079  86.3969 322.3211 0002203  91.6568 268.4880 14.34217134444055
IRIDIUM 144             
1 43249U 18030A   26167.74221469  .00000163  00000+0  51025-4 0  9997
2 43249  86.3957 290.5857 0002089  97.3325 262.8108 14.34216582430073
IRIDIUM 149             
1 43250U 18030B   26167.74855865 -.00000017  00000+0 -13013-4 0  9997
2 43250  86.3954 290.5504 0002148  94.0992 266.0449 14.34217255430095
IRIDIUM 157             
1 43251U 18030C   26167.83735471 -.00000022  00000+0 -15029-4 0  9993
2 43251  86.3956 290.5665 0002077  94.1746 265.9687 14.34217309430086
IRIDIUM 140             
1 43252U 18030D   26167.85638236 -.00000004  00000+0 -83478-5 0  9991
2 43252  86.3956 290.5711 0002030  93.6967 266.4461 14.34217396430146
IRIDIUM 145             
1 43253U 18030E   26167.84369690  .00000032  00000+0  44417-5 0  9995
2 43253  86.3959 290.5485 0001989 100.9568 259.1852 14.34217484430072
IRIDIUM 146             
1 43254U 18030F   26167.75489939  .00000090  00000+0  25242-4 0  9993
2 43254  86.3958 290.5979 0002120  96.7957 263.3480 14.34218389430071
IRIDIUM 148             
1 43255U 18030G   26167.86272537  .00000023  00000+0  10523-5 0  9993
2 43255  86.3961 290.5959 0002254  96.0955 264.0498 14.34217588430126
IRIDIUM 142             
1 43256U 18030H   26167.41240075  .00000025  00000+0  17394-5 0  9992
2 43256  86.3955 290.6732 0002089  98.7561 261.3872 14.34217412430029
IRIDIUM 150             
1 43257U 18030J   26167.72953051  .00000029  00000+0  32329-5 0  9991
2 43257  86.3959 290.6569 0002138  93.6212 266.5228 14.34217619430092
IRIDIUM 143             
1 43258U 18030K   26167.85003957 -.00000020  00000+0 -14369-4 0  9993
2 43258  86.3959 290.6992 0001975  96.6988 263.4433 14.34217249430042
IRIDIUM 161             
1 43478U 18047C   26167.75300738  .00000262  00000+0  71976-4 0  9994
2 43478  86.4481  88.6527 0002521  84.5861 275.5628 14.43282671425078
IRIDIUM 152             
1 43479U 18047D   26167.75298985  .00000164  00000+0  51405-4 0  9991
2 43479  86.3957  88.5139 0002361  83.6423 276.5041 14.34216922422422
IRIDIUM 147             
1 43480U 18047E   26167.75933220  .00000026  00000+0  21795-5 0  9998
2 43480  86.3959  88.5163 0002145  85.9285 274.2156 14.34217523422424
IRIDIUM 110             
1 43481U 18047F   26167.76567566  .00000061  00000+0  14882-4 0  9993
2 43481  86.3960  88.6055 0002574  82.5165 277.6323 14.34217150422412
IRIDIUM 162             
1 43482U 18047G   26167.74671720  .00000281  00000+0  77611-4 0  9993
2 43482  86.4481  88.5465 0002264  82.3905 277.7553 14.43281479425067
IRIDIUM 160             
1 43569U 18061A   26167.71151007  .00000067  00000+0  16842-4 0  9994
2 43569  86.3962  56.9964 0002261  85.6187 274.5267 14.34218029413306
IRIDIUM 166             
1 43570U 18061B   26167.73688043  .00000011  00000+0 -31794-5 0  9997
2 43570  86.3960  56.9361 0001997  86.3997 273.7427 14.34217596413339
IRIDIUM 158             
1 43571U 18061C   26167.70516723  .00000074  00000+0  19312-4 0  9999
2 43571  86.3961  56.9595 0002183  82.4340 277.7103 14.34218011413290
IRIDIUM 165             
1 43572U 18061D   26167.73053726  .00000090  00000+0  24941-4 0  9994
2 43572  86.3964  56.9954 0002065  86.5050 273.6382 14.34217509413324
IRIDIUM 155             
1 43573U 18061E   26167.76225065  .00000018  00000+0 -62204-6 0  9992
2 43573  86.3956  56.8508 0002007  82.4879 277.6544 14.34217605413297
IRIDIUM 154             
1 43574U 18061F   26167.74322061  .00000232  00000+0  75784-4 0  9997
2 43574  86.3961  56.9924 0002130  87.4487 272.6953 14.34216542413348
IRIDIUM 163             
1 43575U 18061G   26167.72419211  .00000051  00000+0  11071-4 0  9998
2 43575  86.3960  56.9158 0002242  84.0682 276.0770 14.34216423413311
