OBJECT_NAME,OBJECT_ID,EPOCH,MEAN_MOTION,ECCENTRICITY,INCLINATION,RA_OF_ASC_NODE,ARG_OF_PERICENTER,MEAN_ANOMALY,EPHEMERIS_TYPE,CLASSIFICATION_TYPE,NORAD_CAT_ID,ELEMENT_SET_NO,REV_AT_EPOCH,BSTAR,MEAN_MOTION_DOT,MEAN_MOTION_DDOT
IRIDIUM 138,2017-083B,2026-06-16T16:31:31.140768,14.34217764,.0002322,86.3978,321.9192,87.0564,273.0897,0,U,43071,999,44406,.41455E-4,.136E-5,0
IRIDIUM 116,2017-083C,2026-06-16T20:47:15.117216,14.34217745,.0001966,86.3963,322.1355,98.7248,261.4170,0,U,43072,999,44412,-.23739E-5,.13E-6,0
IRIDIUM 130,2017-083D,2026-06-16T16:40:38.978976,14.34218522,.0001928,86.3970,322.4823,91.9929,268.1488,0,U,43073,999,44404,.29839E-4,.103E-5,0
IRIDIUM 151,2017-083E,2026-06-16T21:05:31.183296,14.34217489,.0002048,86.3961,322.1881,92.9504,267.1926,0,U,43074,999,44409,-.49577E-5,.6E-7,0
IRIDIUM 134,2017-083F,2026-06-16T20:19:51.165408,14.34217308,.0001975,86.3962,322.2094,91.3578,268.7844,0,U,43075,999,44405,-.17659E-4,-.3E-6,0
IRIDIUM 137,2017-083G,2026-06-16T20:38:07.158048,14.34217717,.0002261,86.3969,322.2968,103.8153,256.3294,0,U,43076,999,44412,-.23892E-5,.13E-6,0
IRIDIUM 141,2017-083H,2026-06-16T20:28:59.122848,14.34217922,.0002214,86.3963,322.1301,90.8285,269.3164,0,U,43077,999,44412,.44481E-5,.32E-6,0
IRIDIUM 153,2017-083J,2026-06-16T17:39:39.456576,14.34217569,.0002252,86.3960,290.6595,89.8464,270.2990,0,U,43078,999,44521,-.10671E-5,.17E-6,0
IRIDIUM 131,2017-083K,2026-06-16T20:10:43.043808,14.34217134,.0002203,86.3969,322.3211,91.6568,268.4880,0,U,43079,999,44405,.22267E-4,.82E-6,0
IRIDIUM 144,2018-030A,2026-06-16T17:48:47.349216,14.34216582,.0002089,86.3957,290.5857,97.3325,262.8108,0,U,43249,999,43007,.51025E-4,.163E-5,0
IRIDIUM 149,2018-030B,2026-06-16T17:57:55.467360,14.34217255,.0002148,86.3954,290.5504,94.0992,266.0449,0,U,43250,999,43009,-.13013E-4,-.17E-6,0
IRIDIUM 157,2018-030C,2026-06-16T20:05:47.446944,14.34217309,.0002077,86.3956,290.5665,94.1746,265.9687,0,U,43251,999,43008,-.15029E-4,-.22E-6,0
IRIDIUM 140,2018-030D,2026-06-16T20:33:11.435904,14.34217396,.000203,86.3956,290.5711,93.6967,266.4461,0,U,43252,999,43014,-.83478E-5,-.4E-7,0
IRIDIUM 145,2018-030E,2026-06-16T20:14:55.412160,14.34217484,.0001989,86.3959,290.5485,100.9568,259.1852,0,U,43253,999,43007,.44417E-5,.32E-6,0
IRIDIUM 146,2018-030F,2026-06-16T18:07:03.307296,14.34218389,.000212,86.3958,290.5979,96.7957,263.3480,0,U,43254,999,43007,.25242E-4,.9E-6,0
IRIDIUM 148,2018-030G,2026-06-16T20:42:19.471968,14.34217588,.0002254,86.3961,290.5959,96.0955,264.0498,0,U,43255,999,43012,.10523E-5,.23E-6,0
IRIDIUM 142,2018-030H,2026-06-16T09:53:51.424800,14.34217412,.00020896,86.3955,290.6732,98.7561,261.3872,0,U,43256,999,43002,.1739414E-5,.25E-6,0
IRIDIUM 150,2018-030J,2026-06-16T17:30:31.436064,14.34217619,.0002138,86.3959,290.6569,93.6212,266.5228,0,U,43257,999,43009,.32329E-5,.29E-6,0
IRIDIUM 143,2018-030K,2026-06-16T20:24:03.418848,14.34217249,.0001975,86.3959,290.6992,96.6988,263.4433,0,U,43258,999,43004,-.14369E-4,-.2E-6,0
IRIDIUM 161,2018-047C,2026-06-16T18:04:19.837632,14.43282671,.0002521,86.4481,88.6527,84.5861,275.5628,0,U,43478,999,42507,.71976E-4,.262E-5,0
IRIDIUM 152,2018-047D,2026-06-16T18:04:18.323040,14.34216922,.0002361,86.3957,88.5139,83.6423,276.5041,0,U,43479,999,42242,.51405E-4,.164E-5,0
IRIDIUM 147,2018-047E,2026-06-16T18:13:26.302080,14.34217523,.0002145,86.3959,88.5163,85.9285,274.2156,0,U,43480,999,42242,.21795E-5,.26E-6,0
IRIDIUM 110,2018-047F,2026-06-16T18:22:34.377024,14.34217150,.0002574,86.3960,88.6055,82.5165,277.6323,0,U,43481,999,42241,.14882E-4,.61E-6,0
IRIDIUM 162,2018-047G,2026-06-16T17:55:16.366080,14.43281479,.0002264,86.4481,88.5465,82.3905,277.7553,0,U,43482,999,42506,.77611E-4,.281E-5,0
IRIDIUM 160,2018-061A,2026-06-16T17:04:34.470048,14.34218029,.0002261,86.3962,56.9964,85.6187,274.5267,0,U,43569,999,41330,.16842E-4,.67E-6,0
IRIDIUM 166,2018-061B,2026-06-16T17:41:06.469152,14.34217596,.0001997,86.3960,56.9361,86.3997,273.7427,0,U,43570,999,41333,-.31794E-5,.11E-6,0
IRIDIUM 158,2018-061C,2026-06-16T16:55:26.448672,14.34218011,.0002183,86.3961,56.9595,82.4340,277.7103,0,U,43571,999,41329,.19312E-4,.74E-6,0
IRIDIUM 165,2018-061D,2026-06-16T17:31:58.419264,14.34217509,.0002065,86.3964,56.9954,86.5050,273.6382,0,U,43572,999,41332,.24941E-4,.9E-6,0
IRIDIUM 155,2018-061E,2026-06-16T18:17:38.456160,14.34217605,.0002007,86.3956,56.8508,82.4879,277.6544,0,U,43573,999,41329,-.62204E-6,.18E-6,0
IRIDIUM 154,2018-061F,2026-06-16T17:50:14.260704,14.34216542,.000213,86.3961,56.9924,87.4487,272.6953,0,U,43574,999,41334,.75784E-4,.232E-5,0
IRIDIUM 163,2018-061G,2026-06-16T17:22:50.198304,14.34216423,.0002242,86.3960,56.9158,84.0682,276.0770,0,U,43575,999,41331,.11071E-4,.51E-6,0
